COSMOS 2251 DEB         
1 37087U 93036BFH 17345.21764153  .00002697  00000-0  61380-3 0  9990
2 37087  74.0255 299.4228 0203128  39.0936 322.4698 14.44441071233116
